CCSDS_OMM_VERS = 2.0
CREATION_DATE  = 
ORIGINATOR     = 

OBJECT_NAME    = STARLINK-35336
OBJECT_ID      = 2025-232B
CENTER_NAME    = EARTH
REF_FRAME      = TEME
TIME_SYSTEM    = UTC
MEAN_ELEMENT_THEORY = SGP/SGP4

EPOCH          = 2025-11-07T08:00:01.999872
MEAN_MOTION    = 15.49289288
ECCENTRICITY   = .000174
INCLINATION    = 53.1591
RA_OF_ASC_NODE = 314.4481
ARG_OF_PERICENTER = 106.1825
MEAN_ANOMALY   = 167.3322

EPHEMERIS_TYPE = 0
CLASSIFICATION_TYPE = U
NORAD_CAT_ID   = 66006
ELEMENT_SET_NO = 999
REV_AT_EPOCH   = 385
BSTAR          = .12750215E-2
MEAN_MOTION_DOT = .71062E-3
MEAN_MOTION_DDOT = 0

CCSDS_OMM_VERS = 2.0
CREATION_DATE  = 
ORIGINATOR     = 

OBJECT_NAME    = STARLINK-35196
OBJECT_ID      = 2025-232C
CENTER_NAME    = EARTH
REF_FRAME      = TEME
TIME_SYSTEM    = UTC
MEAN_ELEMENT_THEORY = SGP/SGP4

EPOCH          = 2025-11-07T08:00:01.999872
MEAN_MOTION    = 15.49246773
ECCENTRICITY   = .0001484
INCLINATION    = 53.1592
RA_OF_ASC_NODE = 314.4444
ARG_OF_PERICENTER = 92.3117
MEAN_ANOMALY   = 183.2357

EPHEMERIS_TYPE = 0
CLASSIFICATION_TYPE = U
NORAD_CAT_ID   = 66007
ELEMENT_SET_NO = 999
REV_AT_EPOCH   = 385
BSTAR          = .17931514E-2
MEAN_MOTION_DOT = .100349E-2
MEAN_MOTION_DDOT = 0

CCSDS_OMM_VERS = 2.0
CREATION_DATE  = 
ORIGINATOR     = 

OBJECT_NAME    = STARLINK-35236
OBJECT_ID      = 2025-232D
CENTER_NAME    = EARTH
REF_FRAME      = TEME
TIME_SYSTEM    = UTC
MEAN_ELEMENT_THEORY = SGP/SGP4

EPOCH          = 2025-11-07T08:00:01.999872
MEAN_MOTION    = 15.49299140
ECCENTRICITY   = .00016177
INCLINATION    = 53.1591
RA_OF_ASC_NODE = 314.4402
ARG_OF_PERICENTER = 83.0620
MEAN_ANOMALY   = 194.3968

EPHEMERIS_TYPE = 0
CLASSIFICATION_TYPE = U
NORAD_CAT_ID   = 66008
ELEMENT_SET_NO = 999
REV_AT_EPOCH   = 385
BSTAR          = .19564438E-3
MEAN_MOTION_DOT = .10443E-3
MEAN_MOTION_DDOT = 0

CCSDS_OMM_VERS = 2.0
CREATION_DATE  = 
ORIGINATOR     = 

OBJECT_NAME    = STARLINK-35276
OBJECT_ID      = 2025-232E
CENTER_NAME    = EARTH
REF_FRAME      = TEME
TIME_SYSTEM    = UTC
MEAN_ELEMENT_THEORY = SGP/SGP4

EPOCH          = 2025-11-07T08:00:01.999872
MEAN_MOTION    = 15.46631596
ECCENTRICITY   = .0001282
INCLINATION    = 53.1597
RA_OF_ASC_NODE = 314.4418
ARG_OF_PERICENTER = 93.1077
MEAN_ANOMALY   = 183.4318

EPHEMERIS_TYPE = 0
CLASSIFICATION_TYPE = U
NORAD_CAT_ID   = 66009
ELEMENT_SET_NO = 999
REV_AT_EPOCH   = 384
BSTAR          = -.45863103E-1
MEAN_MOTION_DOT = -.2065556E-1
MEAN_MOTION_DDOT = 0

CCSDS_OMM_VERS = 2.0
CREATION_DATE  = 
ORIGINATOR     = 

OBJECT_NAME    = STARLINK-35297
OBJECT_ID      = 2025-232F
CENTER_NAME    = EARTH
REF_FRAME      = TEME
TIME_SYSTEM    = UTC
MEAN_ELEMENT_THEORY = SGP/SGP4

EPOCH          = 2025-11-07T08:00:01.999872
MEAN_MOTION    = 15.49235465
ECCENTRICITY   = .00013313
INCLINATION    = 53.1591
RA_OF_ASC_NODE = 314.4323
ARG_OF_PERICENTER = 79.4064
MEAN_ANOMALY   = 201.9338

EPHEMERIS_TYPE = 0
CLASSIFICATION_TYPE = U
NORAD_CAT_ID   = 66010
ELEMENT_SET_NO = 999
REV_AT_EPOCH   = 385
BSTAR          = .1778139E-2
MEAN_MOTION_DOT = .99454E-3
MEAN_MOTION_DDOT = 0

CCSDS_OMM_VERS = 2.0
CREATION_DATE  = 
ORIGINATOR     = 

OBJECT_NAME    = STARLINK-35256
OBJECT_ID      = 2025-232G
CENTER_NAME    = EARTH
REF_FRAME      = TEME
TIME_SYSTEM    = UTC
MEAN_ELEMENT_THEORY = SGP/SGP4

EPOCH          = 2025-11-07T08:00:01.999872
MEAN_MOTION    = 15.49244898
ECCENTRICITY   = .00015605
INCLINATION    = 53.1592
RA_OF_ASC_NODE = 314.4156
ARG_OF_PERICENTER = 68.9086
MEAN_ANOMALY   = 220.0467

EPHEMERIS_TYPE = 0
CLASSIFICATION_TYPE = U
NORAD_CAT_ID   = 66011
ELEMENT_SET_NO = 999
REV_AT_EPOCH   = 385
BSTAR          = .2267808E-2
MEAN_MOTION_DOT = .127468E-2
MEAN_MOTION_DDOT = 0

CCSDS_OMM_VERS = 2.0
CREATION_DATE  = 
ORIGINATOR     = 

OBJECT_NAME    = STARLINK-35293
OBJECT_ID      = 2025-232H
CENTER_NAME    = EARTH
REF_FRAME      = TEME
TIME_SYSTEM    = UTC
MEAN_ELEMENT_THEORY = SGP/SGP4

EPOCH          = 2025-11-07T08:00:01.999872
MEAN_MOTION    = 15.49244229
ECCENTRICITY   = .00015409
INCLINATION    = 53.1591
RA_OF_ASC_NODE = 314.4275
ARG_OF_PERICENTER = 64.6255
MEAN_ANOMALY   = 218.5916

EPHEMERIS_TYPE = 0
CLASSIFICATION_TYPE = U
NORAD_CAT_ID   = 66012
ELEMENT_SET_NO = 999
REV_AT_EPOCH   = 385
BSTAR          = .22760838E-2
MEAN_MOTION_DOT = .127939E-2
MEAN_MOTION_DDOT = 0

CCSDS_OMM_VERS = 2.0
CREATION_DATE  = 
ORIGINATOR     = 

OBJECT_NAME    = STARLINK-35307
OBJECT_ID      = 2025-232J
CENTER_NAME    = EARTH
REF_FRAME      = TEME
TIME_SYSTEM    = UTC
MEAN_ELEMENT_THEORY = SGP/SGP4

EPOCH          = 2025-11-07T08:00:01.999872
MEAN_MOTION    = 15.42424978
ECCENTRICITY   = .00017116
INCLINATION    = 53.1602
RA_OF_ASC_NODE = 314.4605
ARG_OF_PERICENTER = 71.6034
MEAN_ANOMALY   = 195.3620

EPHEMERIS_TYPE = 0
CLASSIFICATION_TYPE = U
NORAD_CAT_ID   = 66013
ELEMENT_SET_NO = 999
REV_AT_EPOCH   = 378
BSTAR          = -.42693642E-1
MEAN_MOTION_DOT = -.1674082E-1
MEAN_MOTION_DDOT = 0

CCSDS_OMM_VERS = 2.0
CREATION_DATE  = 
ORIGINATOR     = 

OBJECT_NAME    = STARLINK-35395
OBJECT_ID      = 2025-232K
CENTER_NAME    = EARTH
REF_FRAME      = TEME
TIME_SYSTEM    = UTC
MEAN_ELEMENT_THEORY = SGP/SGP4

EPOCH          = 2025-11-07T08:00:01.999872
MEAN_MOTION    = 15.49014011
ECCENTRICITY   = .0001544
INCLINATION    = 53.1594
RA_OF_ASC_NODE = 314.4205
ARG_OF_PERICENTER = 93.8540
MEAN_ANOMALY   = 193.1402

EPHEMERIS_TYPE = 0
CLASSIFICATION_TYPE = U
NORAD_CAT_ID   = 66014
ELEMENT_SET_NO = 999
REV_AT_EPOCH   = 384
BSTAR          = -.43206382E-1
MEAN_MOTION_DOT = -.2110423E-1
MEAN_MOTION_DDOT = 0

CCSDS_OMM_VERS = 2.0
CREATION_DATE  = 
ORIGINATOR     = 

OBJECT_NAME    = STARLINK-34622
OBJECT_ID      = 2025-232L
CENTER_NAME    = EARTH
REF_FRAME      = TEME
TIME_SYSTEM    = UTC
MEAN_ELEMENT_THEORY = SGP/SGP4

EPOCH          = 2025-11-07T08:00:01.999872
MEAN_MOTION    = 15.49296144
ECCENTRICITY   = .0001692
INCLINATION    = 53.1594
RA_OF_ASC_NODE = 314.4040
ARG_OF_PERICENTER = 83.8061
MEAN_ANOMALY   = 210.9058

EPHEMERIS_TYPE = 0
CLASSIFICATION_TYPE = U
NORAD_CAT_ID   = 66015
ELEMENT_SET_NO = 999
REV_AT_EPOCH   = 374
BSTAR          = .24575484E-3
MEAN_MOTION_DOT = .13236E-3
MEAN_MOTION_DDOT = 0

CCSDS_OMM_VERS = 2.0
CREATION_DATE  = 
ORIGINATOR     = 

OBJECT_NAME    = STARLINK-35243
OBJECT_ID      = 2025-232M
CENTER_NAME    = EARTH
REF_FRAME      = TEME
TIME_SYSTEM    = UTC
MEAN_ELEMENT_THEORY = SGP/SGP4

EPOCH          = 2025-11-07T08:00:01.999872
MEAN_MOTION    = 15.49289352
ECCENTRICITY   = .00016828
INCLINATION    = 53.1593
RA_OF_ASC_NODE = 314.4080
ARG_OF_PERICENTER = 84.7003
MEAN_ANOMALY   = 208.0926

EPHEMERIS_TYPE = 0
CLASSIFICATION_TYPE = U
NORAD_CAT_ID   = 66016
ELEMENT_SET_NO = 999
REV_AT_EPOCH   = 385
BSTAR          = .47197166E-3
MEAN_MOTION_DOT = .2587E-3
MEAN_MOTION_DDOT = 0

CCSDS_OMM_VERS = 2.0
CREATION_DATE  = 
ORIGINATOR     = 

OBJECT_NAME    = STARLINK-35398
OBJECT_ID      = 2025-232N
CENTER_NAME    = EARTH
REF_FRAME      = TEME
TIME_SYSTEM    = UTC
MEAN_ELEMENT_THEORY = SGP/SGP4

EPOCH          = 2025-11-07T08:00:01.999872
MEAN_MOTION    = 15.40068824
ECCENTRICITY   = .00022735
INCLINATION    = 53.1601
RA_OF_ASC_NODE = 314.4561
ARG_OF_PERICENTER = 57.2810
MEAN_ANOMALY   = 211.0306

EPHEMERIS_TYPE = 0
CLASSIFICATION_TYPE = U
NORAD_CAT_ID   = 66017
ELEMENT_SET_NO = 999
REV_AT_EPOCH   = 377
BSTAR          = -.20082437E-1
MEAN_MOTION_DOT = -.751027E-2
MEAN_MOTION_DDOT = 0

