STARLINK-35336          
1 66006U 25232B   25311.33335648  .00071062  00000+0  12750-2 0  9991
2 66006  53.1591 314.4481 0001740 106.1825 167.3322 15.49289288  3850
STARLINK-35196          
1 66007U 25232C   25311.33335648  .00100349  00000+0  17932-2 0  9990
2 66007  53.1592 314.4444 0001484  92.3117 183.2357 15.49246773  3853
STARLINK-35236          
1 66008U 25232D   25311.33335648  .00010443  00000+0  19564-3 0  9990
2 66008  53.1591 314.4402 0001617  83.0620 194.3968 15.49299140  3858
STARLINK-35276          
1 66009U 25232E   25311.33335648 -.02065556  00000+0 -45863-1 0  9999
2 66009  53.1597 314.4418 0001282  93.1077 183.4318 15.46631596  3847
STARLINK-35297          
1 66010U 25232F   25311.33335648  .00099454  00000+0  17781-2 0  9990
2 66010  53.1591 314.4323 0001331  79.4064 201.9338 15.49235465  3853
STARLINK-35256          
1 66011U 25232G   25311.33335648  .00127468  00000+0  22678-2 0  9999
2 66011  53.1592 314.4156 0001560  68.9086 220.0467 15.49244898  3855
STARLINK-35293          
1 66012U 25232H   25311.33335648  .00127939  00000+0  22761-2 0  9996
2 66012  53.1591 314.4275 0001540  64.6255 218.5916 15.49244229  3855
STARLINK-35307          
1 66013U 25232J   25311.33335648 -.01674082  00000+0 -42694-1 0  9992
2 66013  53.1602 314.4605 0001711  71.6034 195.3620 15.42424978  3789
STARLINK-35395          
1 66014U 25232K   25311.33335648 -.02110423  00000+0 -43206-1 0  9998
2 66014  53.1594 314.4205 0001544  93.8540 193.1402 15.49014011  3849
STARLINK-34622          
1 66015U 25232L   25311.33335648  .00013236  00000+0  24575-3 0  9999
2 66015  53.1594 314.4040 0001692  83.8061 210.9058 15.49296144  3741
STARLINK-35243          
1 66016U 25232M   25311.33335648  .00025870  00000+0  47197-3 0  9992
2 66016  53.1593 314.4080 0001682  84.7003 208.0926 15.49289352  3857
STARLINK-35398          
1 66017U 25232N   25311.33335648 -.00751027  00000+0 -20082-1 0  9997
2 66017  53.1601 314.4561 0002273  57.2810 211.0306 15.40068824  3777
